[Satellite]
VERSION=1.1
NAME=HXMT
NICKNAME=HXMT
TLE1=1 42758U 17034A   17186.27550926 -.00000217  00000-0  00000-0 0  9991
TLE2=2 42758  43.0169 187.3635 0006521 114.7251  58.5578 15.07979373  3045
